CCSDS_OMM_VERS = 2.0
CREATION_DATE  = 
ORIGINATOR     = 

OBJECT_NAME    = SL-16 R/B
OBJECT_ID      = 1994-074B
CENTER_NAME    = EARTH
REF_FRAME      = TEME
TIME_SYSTEM    = UTC
MEAN_ELEMENT_THEORY = SGP/SGP4

EPOCH          = 2026-02-23T12:58:55.952832
MEAN_MOTION    = 14.79389658
ECCENTRICITY   = .000512
INCLINATION    = 97.7130
RA_OF_ASC_NODE = 85.9305
ARG_OF_PERICENTER = 266.8813
MEAN_ANOMALY   = 254.2945

EPHEMERIS_TYPE = 0
CLASSIFICATION_TYPE = U
NORAD_CAT_ID   = 23343
ELEMENT_SET_NO = 999
REV_AT_EPOCH   = 68515
BSTAR          = .71241E-4
MEAN_MOTION_DOT = .482E-5
MEAN_MOTION_DDOT = 0

CCSDS_OMM_VERS = 2.0
CREATION_DATE  = 
ORIGINATOR     = 

OBJECT_NAME    = SL-16 R/B
OBJECT_ID      = 1994-077B
CENTER_NAME    = EARTH
REF_FRAME      = TEME
TIME_SYSTEM    = UTC
MEAN_ELEMENT_THEORY = SGP/SGP4

EPOCH          = 2026-02-23T06:44:38.170176
MEAN_MOTION    = 14.15564068
ECCENTRICITY   = .0003777
INCLINATION    = 70.9843
RA_OF_ASC_NODE = 22.7997
ARG_OF_PERICENTER = 227.6866
MEAN_ANOMALY   = 132.3937

EPHEMERIS_TYPE = 0
CLASSIFICATION_TYPE = U
NORAD_CAT_ID   = 23405
ELEMENT_SET_NO = 999
REV_AT_EPOCH   = 61419
BSTAR          = .71097E-5
MEAN_MOTION_DOT = -.34E-6
MEAN_MOTION_DDOT = 0

CCSDS_OMM_VERS = 2.0
CREATION_DATE  = 
ORIGINATOR     = 

OBJECT_NAME    = ARIANE 40+ R/B
OBJECT_ID      = 1995-021B
CENTER_NAME    = EARTH
REF_FRAME      = TEME
TIME_SYSTEM    = UTC
MEAN_ELEMENT_THEORY = SGP/SGP4

EPOCH          = 2026-02-23T10:07:04.004832
MEAN_MOTION    = 14.39761036
ECCENTRICITY   = .0006943
INCLINATION    = 98.4528
RA_OF_ASC_NODE = 126.0953
ARG_OF_PERICENTER = 175.5134
MEAN_ANOMALY   = 195.9310

EPHEMERIS_TYPE = 0
CLASSIFICATION_TYPE = U
NORAD_CAT_ID   = 23561
ELEMENT_SET_NO = 999
REV_AT_EPOCH   = 61719
BSTAR          = .10506E-3
MEAN_MOTION_DOT = .286E-5
MEAN_MOTION_DDOT = 0

CCSDS_OMM_VERS = 2.0
CREATION_DATE  = 
ORIGINATOR     = 

OBJECT_NAME    = SL-16 R/B
OBJECT_ID      = 1995-058B
CENTER_NAME    = EARTH
REF_FRAME      = TEME
TIME_SYSTEM    = UTC
MEAN_ELEMENT_THEORY = SGP/SGP4

EPOCH          = 2026-02-23T08:35:25.533024
MEAN_MOTION    = 14.15494620
ECCENTRICITY   = .0011257
INCLINATION    = 71.0202
RA_OF_ASC_NODE = 210.3421
ARG_OF_PERICENTER = 151.1221
MEAN_ANOMALY   = 209.0527

EPHEMERIS_TYPE = 0
CLASSIFICATION_TYPE = U
NORAD_CAT_ID   = 23705
ELEMENT_SET_NO = 999
REV_AT_EPOCH   = 56582
BSTAR          = -.8759E-4
MEAN_MOTION_DOT = -.219E-5
MEAN_MOTION_DDOT = 0

CCSDS_OMM_VERS = 2.0
CREATION_DATE  = 
ORIGINATOR     = 

OBJECT_NAME    = SL-16 R/B
OBJECT_ID      = 1996-051B
CENTER_NAME    = EARTH
REF_FRAME      = TEME
TIME_SYSTEM    = UTC
MEAN_ELEMENT_THEORY = SGP/SGP4

EPOCH          = 2026-02-23T10:26:38.065920
MEAN_MOTION    = 14.12411579
ECCENTRICITY   = .0016352
INCLINATION    = 70.7583
RA_OF_ASC_NODE = 205.4086
ARG_OF_PERICENTER = 168.6181
MEAN_ANOMALY   = 191.5311

EPHEMERIS_TYPE = 0
CLASSIFICATION_TYPE = U
NORAD_CAT_ID   = 24298
ELEMENT_SET_NO = 999
REV_AT_EPOCH   = 51963
BSTAR          = .81998E-4
MEAN_MOTION_DOT = .102E-5
MEAN_MOTION_DDOT = 0

CCSDS_OMM_VERS = 2.0
CREATION_DATE  = 
ORIGINATOR     = 

OBJECT_NAME    = ORBVIEW 2 (SEASTAR)
OBJECT_ID      = 1997-037A
CENTER_NAME    = EARTH
REF_FRAME      = TEME
TIME_SYSTEM    = UTC
MEAN_ELEMENT_THEORY = SGP/SGP4

EPOCH          = 2026-02-23T09:47:06.596736
MEAN_MOTION    = 14.35482661
ECCENTRICITY   = .0003198
INCLINATION    = 98.8542
RA_OF_ASC_NODE = 218.3430
ARG_OF_PERICENTER = 100.5611
MEAN_ANOMALY   = 259.5934

EPHEMERIS_TYPE = 0
CLASSIFICATION_TYPE = U
NORAD_CAT_ID   = 24883
ELEMENT_SET_NO = 999
REV_AT_EPOCH   = 50642
BSTAR          = .12031E-3
MEAN_MOTION_DOT = .299E-5
MEAN_MOTION_DDOT = 0

CCSDS_OMM_VERS = 2.0
CREATION_DATE  = 
ORIGINATOR     = 

OBJECT_NAME    = SL-16 R/B
OBJECT_ID      = 1998-043G
CENTER_NAME    = EARTH
REF_FRAME      = TEME
TIME_SYSTEM    = UTC
MEAN_ELEMENT_THEORY = SGP/SGP4

EPOCH          = 2026-02-23T06:40:13.258272
MEAN_MOTION    = 14.26046106
ECCENTRICITY   = .0010812
INCLINATION    = 98.8229
RA_OF_ASC_NODE = 7.5415
ARG_OF_PERICENTER = 59.2526
MEAN_ANOMALY   = 300.9717

EPHEMERIS_TYPE = 0
CLASSIFICATION_TYPE = U
NORAD_CAT_ID   = 25400
ELEMENT_SET_NO = 999
REV_AT_EPOCH   = 43693
BSTAR          = .50735E-4
MEAN_MOTION_DOT = .76E-6
MEAN_MOTION_DDOT = 0

CCSDS_OMM_VERS = 2.0
CREATION_DATE  = 
ORIGINATOR     = 

OBJECT_NAME    = SL-16 R/B
OBJECT_ID      = 1998-045B
CENTER_NAME    = EARTH
REF_FRAME      = TEME
TIME_SYSTEM    = UTC
MEAN_ELEMENT_THEORY = SGP/SGP4

EPOCH          = 2026-02-23T09:01:20.225856
MEAN_MOTION    = 14.16191374
ECCENTRICITY   = .0005986
INCLINATION    = 71.0102
RA_OF_ASC_NODE = 211.6734
ARG_OF_PERICENTER = 31.6977
MEAN_ANOMALY   = 328.4505

EPHEMERIS_TYPE = 0
CLASSIFICATION_TYPE = U
NORAD_CAT_ID   = 25407
ELEMENT_SET_NO = 999
REV_AT_EPOCH   = 42507
BSTAR          = .59498E-5
MEAN_MOTION_DOT = -.36E-6
MEAN_MOTION_DDOT = 0

CCSDS_OMM_VERS = 2.0
CREATION_DATE  = 
ORIGINATOR     = 

OBJECT_NAME    = ISS (ZARYA)
OBJECT_ID      = 1998-067A
CENTER_NAME    = EARTH
REF_FRAME      = TEME
TIME_SYSTEM    = UTC
MEAN_ELEMENT_THEORY = SGP/SGP4

EPOCH          = 2026-02-23T10:38:42.311328
MEAN_MOTION    = 15.48237969
ECCENTRICITY   = .0008452
INCLINATION    = 51.6318
RA_OF_ASC_NODE = 142.7772
ARG_OF_PERICENTER = 125.3696
MEAN_ANOMALY   = 234.8083

EPHEMERIS_TYPE = 0
CLASSIFICATION_TYPE = U
NORAD_CAT_ID   = 25544
ELEMENT_SET_NO = 999
REV_AT_EPOCH   = 55412
BSTAR          = .27129E-3
MEAN_MOTION_DOT = .14146E-3
MEAN_MOTION_DDOT = 0

CCSDS_OMM_VERS = 2.0
CREATION_DATE  = 
ORIGINATOR     = 

OBJECT_NAME    = CZ-4B R/B
OBJECT_ID      = 1999-025C
CENTER_NAME    = EARTH
REF_FRAME      = TEME
TIME_SYSTEM    = UTC
MEAN_ELEMENT_THEORY = SGP/SGP4

EPOCH          = 2026-02-23T02:59:21.833664
MEAN_MOTION    = 14.18262208
ECCENTRICITY   = .00375301
INCLINATION    = 98.6659
RA_OF_ASC_NODE = 98.7491
ARG_OF_PERICENTER = 28.4022
MEAN_ANOMALY   = 352.4286

EPHEMERIS_TYPE = 0
CLASSIFICATION_TYPE = U
NORAD_CAT_ID   = 25732
ELEMENT_SET_NO = 999
REV_AT_EPOCH   = 38610
BSTAR          = .34275019E-4
MEAN_MOTION_DOT = .28E-6
MEAN_MOTION_DDOT = 0

CCSDS_OMM_VERS = 2.0
CREATION_DATE  = 
ORIGINATOR     = 

OBJECT_NAME    = OKEAN-O
OBJECT_ID      = 1999-039A
CENTER_NAME    = EARTH
REF_FRAME      = TEME
TIME_SYSTEM    = UTC
MEAN_ELEMENT_THEORY = SGP/SGP4

EPOCH          = 2026-02-23T04:29:04.812864
MEAN_MOTION    = 14.80309880
ECCENTRICITY   = .0001645
INCLINATION    = 97.9476
RA_OF_ASC_NODE = 114.2235
ARG_OF_PERICENTER = 77.0618
MEAN_ANOMALY   = 283.0778

EPHEMERIS_TYPE = 0
CLASSIFICATION_TYPE = U
NORAD_CAT_ID   = 25860
ELEMENT_SET_NO = 999
REV_AT_EPOCH   = 43224
BSTAR          = .95604E-4
MEAN_MOTION_DOT = .676E-5
MEAN_MOTION_DDOT = 0

CCSDS_OMM_VERS = 2.0
CREATION_DATE  = 
ORIGINATOR     = 

OBJECT_NAME    = SL-16 R/B
OBJECT_ID      = 1999-039B
CENTER_NAME    = EARTH
REF_FRAME      = TEME
TIME_SYSTEM    = UTC
MEAN_ELEMENT_THEORY = SGP/SGP4

EPOCH          = 2026-02-23T04:19:47.505216
MEAN_MOTION    = 14.81709334
ECCENTRICITY   = .0013665
INCLINATION    = 98.0000
RA_OF_ASC_NODE = 113.2964
ARG_OF_PERICENTER = 307.8328
MEAN_ANOMALY   = 52.1647

EPHEMERIS_TYPE = 0
CLASSIFICATION_TYPE = U
NORAD_CAT_ID   = 25861
ELEMENT_SET_NO = 999
REV_AT_EPOCH   = 43471
BSTAR          = .79119E-4
MEAN_MOTION_DOT = .57E-5
MEAN_MOTION_DDOT = 0

CCSDS_OMM_VERS = 2.0
CREATION_DATE  = 
ORIGINATOR     = 

OBJECT_NAME    = DELTA 2 R/B
OBJECT_ID      = 1999-041E
CENTER_NAME    = EARTH
REF_FRAME      = TEME
TIME_SYSTEM    = UTC
MEAN_ELEMENT_THEORY = SGP/SGP4

EPOCH          = 2026-02-23T06:47:40.405056
MEAN_MOTION    = 14.11782462
ECCENTRICITY   = .0502205
INCLINATION    = 51.7661
RA_OF_ASC_NODE = 358.8153
ARG_OF_PERICENTER = 305.8918
MEAN_ANOMALY   = 49.6369

EPHEMERIS_TYPE = 0
CLASSIFICATION_TYPE = U
NORAD_CAT_ID   = 25876
ELEMENT_SET_NO = 999
REV_AT_EPOCH   = 36099
BSTAR          = .33104E-3
MEAN_MOTION_DOT = .1824E-4
MEAN_MOTION_DDOT = 0

CCSDS_OMM_VERS = 2.0
CREATION_DATE  = 
ORIGINATOR     = 

OBJECT_NAME    = HELIOS 1B
OBJECT_ID      = 1999-064A
CENTER_NAME    = EARTH
REF_FRAME      = TEME
TIME_SYSTEM    = UTC
MEAN_ELEMENT_THEORY = SGP/SGP4

EPOCH          = 2026-02-23T09:17:49.936992
MEAN_MOTION    = 14.87633316
ECCENTRICITY   = .0002466
INCLINATION    = 98.1711
RA_OF_ASC_NODE = 316.2095
ARG_OF_PERICENTER = 94.2967
MEAN_ANOMALY   = 265.8530

EPHEMERIS_TYPE = 0
CLASSIFICATION_TYPE = U
NORAD_CAT_ID   = 25977
ELEMENT_SET_NO = 999
REV_AT_EPOCH   = 68313
BSTAR          = .20413E-3
MEAN_MOTION_DOT = .1798E-4
MEAN_MOTION_DDOT = 0

CCSDS_OMM_VERS = 2.0
CREATION_DATE  = 
ORIGINATOR     = 

OBJECT_NAME    = TERRA
OBJECT_ID      = 1999-068A
CENTER_NAME    = EARTH
REF_FRAME      = TEME
TIME_SYSTEM    = UTC
MEAN_ELEMENT_THEORY = SGP/SGP4

EPOCH          = 2026-02-23T09:24:15.185088
MEAN_MOTION    = 14.60997850
ECCENTRICITY   = .0001692
INCLINATION    = 97.9625
RA_OF_ASC_NODE = 108.3706
ARG_OF_PERICENTER = 190.0361
MEAN_ANOMALY   = 180.4590

EPHEMERIS_TYPE = 0
CLASSIFICATION_TYPE = U
NORAD_CAT_ID   = 25994
ELEMENT_SET_NO = 999
REV_AT_EPOCH   = 39299
BSTAR          = .10108E-3
MEAN_MOTION_DOT = .451E-5
MEAN_MOTION_DDOT = 0

